{"type": "FeatureCollection", "features": [ {"type": "Feature", "properties": {"norad_id": 37550, "name": "IRIDIUM 33 DEB", "group": "iridium-33-debris", "lat": -45.21921819926545, "lon": -151.8223403584874, "alt_km": 678.5131248496091, "timestamp": "2025-12-11T07:02:24.116068+00:00", "meta": {"OBJECT_NAME": "IRIDIUM 33 DEB", "OBJECT_ID": "1997-051XK", "EPOCH": "2025-12-06T21:15:18.690336", "MEAN_MOTION": 14.67089693, "ECCENTRICITY": 0.00053572, "INCLINATION": 86.377, "RA_OF_ASC_NODE": 26.47, "ARG_OF_PERICENTER": 124.88, "MEAN_ANOMALY": 235.2918, "EPHEMERIS_TYPE": 0, "CLASSIFICATION_TYPE": "U", "NORAD_CAT_ID": 37550, "ELEMENT_SET_NO": 999, "REV_AT_EPOCH": 86247, "BSTAR": 0.0020360196, "MEAN_MOTION_DOT": 0.00011461, "MEAN_MOTION_DDOT": 0}, "tle": {"line1": "1 37550U 97051XK  25340.88563299  .00011461  00000+0  20360-2 0  9991", "line2": "2 37550  86.3770  26.4700 0005357 124.8800 235.2918 14.67089693862475"}}, "geometry": {"type": "Point", "coordinates": [-151.8223403584874, -45.21921819926545]}}, {"type": "Feature", "properties": {"norad_id": 37562, "name": "IRIDIUM 33 DEB", "group": "iridium-33-debris", "lat": 50.20951511330556, "lon": -140.13546401965917, "alt_km": 682.0712962386278, "timestamp": "2025-12-11T07:02:24.116080+00:00", "meta": {"OBJECT_NAME": "IRIDIUM 33 DEB", "OBJECT_ID": "1997-051XX", "EPOCH": "2025-12-10T10:43:42.898656", "MEAN_MOTION": 14.56439028, "ECCENTRICITY": 0.00267432, "INCLINATION": 86.3738, "RA_OF_ASC_NODE": 44.6002, "ARG_OF_PERICENTER": 115.0841, "MEAN_ANOMALY": 259.891, "EPHEMERIS_TYPE": 0, "CLASSIFICATION_TYPE": "U", "NORAD_CAT_ID": 37562, "ELEMENT_SET_NO": 999, "REV_AT_EPOCH": 86295, "BSTAR": 0.0016081413, "MEAN_MOTION_DOT": 7.198e-05, "MEAN_MOTION_DDOT": 0}, "tle": {"line1": "1 37562U 97051XX  25344.44702429  .00007198  00000+0  16081-2 0  9997", "line2": "2 37562  86.3738  44.6002 0026743 115.0841 259.8910 14.56439028862954"}}, "geometry": {"type": "Point", "coordinates": [-140.13546401965917, 50.20951511330556]}}, {"type": "Feature", "properties": {"norad_id": 37565, "name": "IRIDIUM 33 DEB", "group": "iridium-33-debris", "lat": -63.92183095439879, "lon": 2.7129812141996124, "alt_km": 737.5764932985921, "timestamp": "2025-12-11T07:02:24.116090+00:00", "meta": {"OBJECT_NAME": "IRIDIUM 33 DEB", "OBJECT_ID": "1997-051YA", "EPOCH": "2025-12-09T09:00:32.620320", "MEAN_MOTION": 14.51496664, "ECCENTRICITY": 0.00152947, "INCLINATION": 86.3494, "RA_OF_ASC_NODE": 11.0435, "ARG_OF_PERICENTER": 94.02, "MEAN_ANOMALY": 266.2754, "EPHEMERIS_TYPE": 0, "CLASSIFICATION_TYPE": "U", "NORAD_CAT_ID": 37565, "ELEMENT_SET_NO": 999, "REV_AT_EPOCH": 65788, "BSTAR": 0.00087733557, "MEAN_MOTION_DOT": 3.53e-05, "MEAN_MOTION_DDOT": 0}, "tle": {"line1": "1 37565U 97051YA  25343.37537755  .00003530  00000+0  87734-3 0  9999", "line2": "2 37565  86.3494  11.0435 0015294  94.0200 266.2754 14.51496664657884"}}, "geometry": {"type": "Point", "coordinates": [2.7129812141996124, -63.92183095439879]}}, {"type": "Feature", "properties": {"norad_id": 38017, "name": "IRIDIUM 33 DEB", "group": "iridium-33-debris", "lat": 36.32912791515567, "lon": 169.55064012628773, "alt_km": 705.3191250011714, "timestamp": "2025-12-11T07:02:24.116100+00:00", "meta": {"OBJECT_NAME": "IRIDIUM 33 DEB", "OBJECT_ID": "1997-051YD", "EPOCH": "2025-12-09T11:46:33.974400", "MEAN_MOTION": 14.48798155, "ECCENTRICITY": 0.00922627, "INCLINATION": 86.3416, "RA_OF_ASC_NODE": 167.6374, "ARG_OF_PERICENTER": 113.885, "MEAN_ANOMALY": 247.2055, "EPHEMERIS_TYPE": 0, "CLASSIFICATION_TYPE": "U", "NORAD_CAT_ID": 38017, "ELEMENT_SET_NO": 999, "REV_AT_EPOCH": 61355, "BSTAR": 0.007075922, "MEAN_MOTION_DOT": 0.00028304, "MEAN_MOTION_DDOT": 0}, "tle": {"line1": "1 38017U 97051YD  25343.49067100  .00028304  00000+0  70759-2 0  9991", "line2": "2 38017  86.3416 167.6374 0092262 113.8850 247.2055 14.48798155613557"}}, "geometry": {"type": "Point", "coordinates": [169.55064012628773, 36.32912791515567]}}, {"type": "Feature", "properties": {"norad_id": 38022, "name": "IRIDIUM 33 DEB", "group": "iridium-33-debris", "lat": -39.62681134626296, "lon": -159.82638527955118, "alt_km": 793.1114595048966, "timestamp": "2025-12-11T07:02:24.116111+00:00", "meta": {"OBJECT_NAME": "IRIDIUM 33 DEB", "OBJECT_ID": "1997-051YJ", "EPOCH": "2025-12-10T20:01:44.139360", "MEAN_MOTION": 14.41229968, "ECCENTRICITY": 0.00467088, "INCLINATION": 86.2688, "RA_OF_ASC_NODE": 17.2769, "ARG_OF_PERICENTER": 56.5664, "MEAN_ANOMALY": 303.9989, "EPHEMERIS_TYPE": 0, "CLASSIFICATION_TYPE": "U", "NORAD_CAT_ID": 38022, "ELEMENT_SET_NO": 999, "REV_AT_EPOCH": 69166, "BSTAR": 0.0014202488, "MEAN_MOTION_DOT": 4.664e-05, "MEAN_MOTION_DDOT": 0}, "tle": {"line1": "1 38022U 97051YJ  25344.83453865  .00004664  00000+0  14202-2 0  9997", "line2": "2 38022  86.2688  17.2769 0046708  56.5664 303.9989 14.41229968691669"}}, "geometry": {"type": "Point", "coordinates": [-159.82638527955118, -39.62681134626296]}}, {"type": "Feature", "properties": {"norad_id": 38028, "name": "IRIDIUM 33 DEB", "group": "iridium-33-debris", "lat": -22.77099463468724, "lon": -0.6475553362382814, "alt_km": 761.8350819119969, "timestamp": "2025-12-11T07:02:24.116121+00:00", "meta": {"OBJECT_NAME": "IRIDIUM 33 DEB", "OBJECT_ID": "1997-051YQ", "EPOCH": "2025-12-09T08:38:54.868992", "MEAN_MOTION": 14.46171938, "ECCENTRICITY": 0.00301795, "INCLINATION": 86.3256, "RA_OF_ASC_NODE": 1.7381, "ARG_OF_PERICENTER": 131.6061, "MEAN_ANOMALY": 228.7734, "EPHEMERIS_TYPE": 0, "CLASSIFICATION_TYPE": "U", "NORAD_CAT_ID": 38028, "ELEMENT_SET_NO": 999, "REV_AT_EPOCH": 65446, "BSTAR": 0.0004464513, "MEAN_MOTION_DOT": 1.624e-05, "MEAN_MOTION_DDOT": 0}, "tle": {"line1": "1 38028U 97051YQ  25343.36035728  .00001624  00000+0  44645-3 0  9992", "line2": "2 38028  86.3256   1.7381 0030179 131.6061 228.7734 14.46171938654463"}}, "geometry": {"type": "Point", "coordinates": [-0.6475553362382814, -22.77099463468724]}}, {"type": "Feature", "properties": {"norad_id": 38228, "name": "IRIDIUM 33 DEB", "group": "iridium-33-debris", "lat": 9.750197711454089, "lon": 49.72333982478901, "alt_km": 848.2446903357422, "timestamp": "2025-12-11T07:02:24.116132+00:00", "meta": {"OBJECT_NAME": "IRIDIUM 33 DEB", "OBJECT_ID": "1997-051ZC", "EPOCH": "2025-12-08T11:59:08.255904", "MEAN_MOTION": 14.27257685, "ECCENTRICITY": 0.00637921, "INCLINATION": 86.2952, "RA_OF_ASC_NODE": 50.2726, "ARG_OF_PERICENTER": 203.1298, "MEAN_ANOMALY": 220.077, "EPHEMERIS_TYPE": 0, "CLASSIFICATION_TYPE": "U", "NORAD_CAT_ID": 38228, "ELEMENT_SET_NO": 999, "REV_AT_EPOCH": 84721, "BSTAR": 0.00059886698, "MEAN_MOTION_DOT": 1.514e-05, "MEAN_MOTION_DDOT": 0}, "tle": {"line1": "1 38228U 97051ZC  25342.49940111  .00001514  00000+0  59887-3 0  9990", "line2": "2 38228  86.2952  50.2726 0063792 203.1298 220.0770 14.27257685847218"}}, "geometry": {"type": "Point", "coordinates": [49.72333982478901, 9.750197711454089]}}, {"type": "Feature", "properties": {"norad_id": 38241, "name": "IRIDIUM 33 DEB", "group": "iridium-33-debris", "lat": 31.822549003396343, "lon": 168.95059500994256, "alt_km": 706.9625209741571, "timestamp": "2025-12-11T07:02:24.116142+00:00", "meta": {"OBJECT_NAME": "IRIDIUM 33 DEB", "OBJECT_ID": "1997-051ZR", "EPOCH": "2025-12-10T07:15:08.601696", "MEAN_MOTION": 14.54840985, "ECCENTRICITY": 0.0005635, "INCLINATION": 86.3233, "RA_OF_ASC_NODE": 351.6745, "ARG_OF_PERICENTER": 78.1993, "MEAN_ANOMALY": 281.9846, "EPHEMERIS_TYPE": 0, "CLASSIFICATION_TYPE": "U", "NORAD_CAT_ID": 38241, "ELEMENT_SET_NO": 999, "REV_AT_EPOCH": 60165, "BSTAR": 0.0011122, "MEAN_MOTION_DOT": 4.793e-05, "MEAN_MOTION_DDOT": 0}, "tle": {"line1": "1 38241U 97051ZR  25344.30218289  .00004793  00000+0  11122-2 0  9992", "line2": "2 38241  86.3233 351.6745 0005635  78.1993 281.9846 14.54840985601656"}}, "geometry": {"type": "Point", "coordinates": [168.95059500994256, 31.822549003396343]}}, {"type": "Feature", "properties": {"norad_id": 38474, "name": "IRIDIUM 33 DEB", "group": "iridium-33-debris", "lat": -57.13225343586848, "lon": 5.024107095754732, "alt_km": 747.8427503983421, "timestamp": "2025-12-11T07:02:24.116153+00:00", "meta": {"OBJECT_NAME": "IRIDIUM 33 DEB", "OBJECT_ID": "1997-051AAB", "EPOCH": "2025-12-10T08:07:41.049120", "MEAN_MOTION": 14.50673883, "ECCENTRICITY": 0.00282895, "INCLINATION": 86.3478, "RA_OF_ASC_NODE": 11.1125, "ARG_OF_PERICENTER": 95.1128, "MEAN_ANOMALY": 265.3307, "EPHEMERIS_TYPE": 0, "CLASSIFICATION_TYPE": "U", "NORAD_CAT_ID": 38474, "ELEMENT_SET_NO": 999, "REV_AT_EPOCH": 65283, "BSTAR": 0.00076503501, "MEAN_MOTION_DOT": 3.04e-05, "MEAN_MOTION_DDOT": 0}, "tle": {"line1": "1 38474U 97051AAB 25344.33866955  .00003040  00000+0  76504-3 0  9992", "line2": "2 38474  86.3478  11.1125 0028289  95.1128 265.3307 14.50673883652835"}}, "geometry": {"type": "Point", "coordinates": [5.024107095754732, -57.13225343586848]}}, {"type": "Feature", "properties": {"norad_id": 39777, "name": "IRIDIUM 33 DEB", "group": "iridium-33-debris", "lat": -39.772649381991464, "lon": 172.37454792533256, "alt_km": 737.836583201055, "timestamp": "2025-12-11T07:02:24.116163+00:00", "meta": {"OBJECT_NAME": "IRIDIUM 33 DEB", "OBJECT_ID": "1997-051AAJ", "EPOCH": "2025-12-10T06:29:21.505056", "MEAN_MOTION": 14.56331625, "ECCENTRICITY": 0.0059749, "INCLINATION": 85.963, "RA_OF_ASC_NODE": 176.2409, "ARG_OF_PERICENTER": 194.9119, "MEAN_ANOMALY": 165.0329, "EPHEMERIS_TYPE": 0, "CLASSIFICATION_TYPE": "U", "NORAD_CAT_ID": 39777, "ELEMENT_SET_NO": 999, "REV_AT_EPOCH": 60149, "BSTAR": 0.0040497, "MEAN_MOTION_DOT": 0.00018433, "MEAN_MOTION_DDOT": 0}, "tle": {"line1": "1 39777U 97051AAJ 25344.27038779  .00018433  00000+0  40497-2 0  9990", "line2": "2 39777  85.9630 176.2409 0059749 194.9119 165.0329 14.56331625601495"}}, "geometry": {"type": "Point", "coordinates": [172.37454792533256, -39.772649381991464]}}]}